OBJECT_NAME,OBJECT_ID,EPOCH,MEAN_MOTION,ECCENTRICITY,INCLINATION,RA_OF_ASC_NODE,ARG_OF_PERICENTER,MEAN_ANOMALY,EPHEMERIS_TYPE,CLASSIFICATION_TYPE,NORAD_CAT_ID,ELEMENT_SET_NO,REV_AT_EPOCH,BSTAR,MEAN_MOTION_DOT,MEAN_MOTION_DDOT
MICROCARB,2025-156A,2026-06-03T15:00:43.409088,14.72310853,.0015345,97.9831,232.0047,319.3110,40.6950,0,U,64899,999,4597,.10393E-3,.608E-5,0
CO3D 3,2025-156B,2026-06-04T03:42:47.776032,15.20197205,.0000923,97.4327,234.0350,140.3370,219.7933,0,U,64900,999,4755,.16557E-3,.3518E-4,0
CO3D 4,2025-156C,2026-06-04T03:43:02.263584,15.20199224,.0001056,97.4328,234.0350,38.7650,321.3661,0,U,64901,999,4755,.26104E-3,.5587E-4,0
CO3D 2,2025-156D,2026-06-04T02:55:00.057216,15.20203783,.000131,97.4327,233.9014,119.5731,240.5635,0,U,64902,999,4754,.23477E-3,.5018E-4,0
CO3D 1,2025-156E,2026-06-04T02:55:12.999072,15.20195331,.00011,97.4327,233.9015,119.5705,240.5640,0,U,64903,999,4754,.24234E-3,.5181E-4,0
STARLINK-34647,2025-157A,2026-06-03T21:38:44.007072,15.34371224,.0001177,53.1599,305.1996,66.2442,293.8684,0,U,64904,999,4931,.90488E-3,.30292E-3,0
STARLINK-34273,2025-157B,2026-06-03T15:11:25.483776,15.34411688,.0001147,53.1607,306.3601,147.8651,212.2422,0,U,64905,999,4929,.86759E-3,.29061E-3,0
STARLINK-34713,2025-157C,2026-06-04T00:47:20.094144,15.30127363,.0001723,53.1600,304.5949,58.8017,301.3152,0,U,64906,999,4929,.91836E-3,.26878E-3,0
STARLINK-34712,2025-157D,2026-06-03T15:16:48.286272,15.34413325,.0001334,53.1607,304.9675,92.6907,267.4248,0,U,64907,999,4930,.6585E-3,.21947E-3,0
STARLINK-34702,2025-157E,2026-06-03T14:32:29.817888,15.31725201,.00011023,53.1614,306.1942,116.0668,244.0447,0,U,64908,999,4928,.1215798E-2,.37582E-3,0
STARLINK-34687,2025-157F,2026-06-03T15:36:44.360352,15.30207028,.0001492,53.1603,306.4660,138.3557,221.7558,0,U,64909,999,4923,.90032E-3,.26406E-3,0
STARLINK-34642,2025-157G,2026-06-03T13:58:53.495040,15.31727499,.00009129,53.1594,306.0509,127.5729,232.5355,0,U,64910,999,4928,.13137652E-2,.4066E-3,0
STARLINK-34718,2025-157H,2026-06-03T14:17:52.805184,15.30215186,.00013281,53.1599,306.8382,116.8916,243.2221,0,U,64911,999,4927,.12781457E-2,.37706E-3,0
STARLINK-34711,2025-157J,2026-06-03T15:20:31.148160,15.34427647,.0001056,53.1592,306.3996,125.9800,234.1301,0,U,64912,999,4928,.77241E-3,.25834E-3,0
STARLINK-34659,2025-157K,2026-06-03T14:25:47.911872,15.31708248,.00010842,53.1605,306.1645,86.4933,273.6193,0,U,64913,999,4923,.87991476E-3,.27046E-3,0
STARLINK-34571,2025-157L,2026-06-04T00:00:02.000160,15.33438036,.000155,53.1595,304.9607,91.4904,336.5911,0,U,64914,999,592,.83484E-3,.27087E-3,0
STARLINK-34636,2025-157M,2026-06-04T04:00:03.000096,15.34356030,.0001589,53.1602,303.9088,89.1619,317.8048,0,U,64915,999,585,.63331E-3,.21051E-3,0
STARLINK-34695,2025-157N,2026-06-03T14:35:54.674880,15.34409549,.00010842,53.1601,299.1099,138.2427,221.8658,0,U,64916,999,4938,.79733851E-3,.26667E-3,0
STARLINK-34653,2025-157P,2026-06-03T15:19:32.507616,15.31717494,.0000979,53.1595,306.3916,108.0385,252.0723,0,U,64917,999,4923,.77214E-3,.23684E-3,0
STARLINK-34611,2025-157Q,2026-06-03T18:12:58.081248,15.34390152,.00013686,53.1606,305.7269,118.9350,241.1790,0,U,64918,999,4930,.97361864E-3,.32652E-3,0
STARLINK-34599,2025-157R,2026-06-03T15:16:58.541088,15.30225940,.0001036,53.1596,306.3711,131.8934,228.2156,0,U,64919,999,4928,.11654E-2,.34344E-3,0
STARLINK-34069,2025-157S,2026-06-04T04:00:03.000096,15.34393057,.000136,53.1595,304.1164,77.6456,224.5046,0,U,64920,999,565,.93865E-3,.31464E-3,0
STARLINK-34699,2025-157T,2026-06-03T15:02:20.560704,15.34395610,.0001382,53.1614,306.3200,117.2338,242.8805,0,U,64921,999,4928,.50969E-3,.16881E-3,0
STARLINK-34700,2025-157U,2026-06-03T15:18:28.442016,15.30257778,.0001272,53.1602,306.3870,72.6424,287.4716,0,U,64922,999,4923,.13322E-2,.39376E-3,0
STARLINK-34643,2025-157V,2026-06-03T15:32:40.145568,15.34338722,.0001207,53.1603,306.4548,44.8078,315.3022,0,U,64923,999,4928,.25491E-2,.86578E-3,0
STARLINK-34199,2025-157W,2026-06-03T17:13:32.265984,15.31729483,.00019163,53.1600,305.4673,40.4355,319.6789,0,U,64924,999,4925,.96256245E-3,.29651E-3,0
STARLINK-34579,2025-157X,2026-06-04T00:00:02.000160,15.30204749,.0001256,53.1591,304.7754,73.3359,88.0768,0,U,64925,999,591,-.92132E-4,-.3087E-4,0
STARLINK-34543,2025-157Y,2026-06-04T04:00:03.000096,15.31695381,.000098,53.1604,303.8808,80.9552,338.6629,0,U,64926,999,581,.53398E-3,.16239E-3,0
STARLINK-34661,2025-157Z,2026-06-04T04:00:03.000096,15.34310698,.0001439,53.1596,303.9895,94.2571,266.1654,0,U,64927,999,577,.92927E-3,.31062E-3,0
STARLINK-34248,2025-157AA,2026-06-03T22:06:37.514592,15.30200811,.0001336,53.1585,305.3086,75.7380,284.3769,0,U,64928,999,4932,.87045E-3,.2551E-3,0
