MICROCARB               
1 64899U 25156A   26154.62550242  .00000608  00000+0  10393-3 0  9991
2 64899  97.9831 232.0047 0015345 319.3110  40.6950 14.72310853 45972
CO3D 3                  
1 64900U 25156B   26155.15471963  .00003518  00000+0  16557-3 0  9996
2 64900  97.4327 234.0350 0000923 140.3370 219.7933 15.20197205 47559
CO3D 4                  
1 64901U 25156C   26155.15488731  .00005587  00000+0  26104-3 0  9995
2 64901  97.4328 234.0350 0001056  38.7650 321.3661 15.20199224 47551
CO3D 2                  
1 64902U 25156D   26155.12152844  .00005018  00000+0  23477-3 0  9995
2 64902  97.4327 233.9014 0001310 119.5731 240.5635 15.20203783 47545
CO3D 1                  
1 64903U 25156E   26155.12167823  .00005181  00000+0  24234-3 0  9992
2 64903  97.4327 233.9015 0001100 119.5705 240.5640 15.20195331 47540
STARLINK-34647          
1 64904U 25157A   26154.90189823  .00030292  00000+0  90488-3 0  9998
2 64904  53.1599 305.1996 0001177  66.2442 293.8684 15.34371224 49319
STARLINK-34273          
1 64905U 25157B   26154.63293384  .00029061  00000+0  86759-3 0  9995
2 64905  53.1607 306.3601 0001147 147.8651 212.2422 15.34411688 49292
STARLINK-34713          
1 64906U 25157C   26155.03287146  .00026878  00000+0  91836-3 0  9995
2 64906  53.1600 304.5949 0001723  58.8017 301.3152 15.30127363 49298
STARLINK-34712          
1 64907U 25157D   26154.63666998  .00021947  00000+0  65850-3 0  9996
2 64907  53.1607 304.9675 0001334  92.6907 267.4248 15.34413325 49308
STARLINK-34702          
1 64908U 25157E   26154.60590067  .00037582  00000+0  12158-2 0  9991
2 64908  53.1614 306.1942 0001102 116.0668 244.0447 15.31725201 49281
STARLINK-34687          
1 64909U 25157F   26154.65051343  .00026406  00000+0  90032-3 0  9997
2 64909  53.1603 306.4660 0001492 138.3557 221.7558 15.30207028 49237
STARLINK-34642          
1 64910U 25157G   26154.58256360  .00040660  00000+0  13138-2 0  9996
2 64910  53.1594 306.0509 0000912 127.5729 232.5355 15.31727499 49283
STARLINK-34718          
1 64911U 25157H   26154.59575006  .00037706  00000+0  12781-2 0  9999
2 64911  53.1599 306.8382 0001328 116.8916 243.2221 15.30215186 49271
STARLINK-34711          
1 64912U 25157J   26154.63924940  .00025834  00000+0  77241-3 0  9992
2 64912  53.1592 306.3996 0001056 125.9800 234.1301 15.34427647 49282
STARLINK-34659          
1 64913U 25157K   26154.60124898  .00027046  00000+0  87991-3 0  9994
2 64913  53.1605 306.1645 0001084  86.4933 273.6193 15.31708248 49234
STARLINK-34571          
1 64914U 25157L   26155.00002315  .00027087  00000+0  83484-3 0  9997
2 64914  53.1595 304.9607 0001550  91.4904 336.5911 15.33438036  5921
STARLINK-34636          
1 64915U 25157M   26155.16670139  .00021051  00000+0  63331-3 0  9994
2 64915  53.1602 303.9088 0001589  89.1619 317.8048 15.34356030  5851
STARLINK-34695          
1 64916U 25157N   26154.60827170  .00026667  00000+0  79734-3 0  9994
2 64916  53.1601 299.1099 0001084 138.2427 221.8658 15.34409549 49383
STARLINK-34653          
1 64917U 25157P   26154.63857069  .00023684  00000+0  77214-3 0  9995
2 64917  53.1595 306.3916 0000979 108.0385 252.0723 15.31717494 49236
STARLINK-34611          
1 64918U 25157Q   26154.75900557  .00032652  00000+0  97362-3 0  9991
2 64918  53.1606 305.7269 0001368 118.9350 241.1790 15.34390152 49301
STARLINK-34599          
1 64919U 25157R   26154.63678867  .00034344  00000+0  11654-2 0  9994
2 64919  53.1596 306.3711 0001036 131.8934 228.2156 15.30225940 49280
STARLINK-34069          
1 64920U 25157S   26155.16670139  .00031464  00000+0  93865-3 0  9994
2 64920  53.1595 304.1164 0001360  77.6456 224.5046 15.34393057  5654
STARLINK-34699          
1 64921U 25157T   26154.62662686  .00016881  00000+0  50969-3 0  9997
2 64921  53.1614 306.3200 0001382 117.2338 242.8805 15.34395610 49286
STARLINK-34700          
1 64922U 25157U   26154.63782919  .00039376  00000+0  13322-2 0  9996
2 64922  53.1602 306.3870 0001272  72.6424 287.4716 15.30257778 49234
STARLINK-34643          
1 64923U 25157V   26154.64768687  .00086578  00000+0  25491-2 0  9990
2 64923  53.1603 306.4548 0001207  44.8078 315.3022 15.34338722 49282
STARLINK-34199          
1 64924U 25157W   26154.71773456  .00029651  00000+0  96256-3 0  9996
2 64924  53.1600 305.4673 0001916  40.4355 319.6789 15.31729483 49254
STARLINK-34579          
1 64925U 25157X   26155.00002315 -.00003087  00000+0 -92132-4 0  9996
2 64925  53.1591 304.7754 0001256  73.3359  88.0768 15.30204749  5913
STARLINK-34543          
1 64926U 25157Y   26155.16670139  .00016239  00000+0  53398-3 0  9990
2 64926  53.1604 303.8808 0000980  80.9552 338.6629 15.31695381  5817
STARLINK-34661          
1 64927U 25157Z   26155.16670139  .00031062  00000+0  92927-3 0  9993
2 64927  53.1596 303.9895 0001439  94.2571 266.1654 15.34310698  5770
STARLINK-34248          
1 64928U 25157AA  26154.92126753  .00025510  00000+0  87045-3 0  9991
2 64928  53.1585 305.3086 0001336  75.7380 284.3769 15.30200811 49324
